STARLINK-31970          
1 59928U 24106G   26068.11044465 -.00001993  00000+0 -62900-4 0  9997
2 59928  43.0032 335.8462 0001166 262.4083  97.6636 15.27580902100486
FLOCK 4G-7              
1 62624U 25009R   26068.79996108  .00011422  00000+0  43168-3 0  9991
2 62624  97.3984 150.8270 0001396 336.9783  23.1393 15.27141471 63725
